CUTE-1 (CO-55)          
1 27844U 03031E   26138.74355775  .00000179  00000+0  96604-4 0  9990
2 27844  98.6745 147.6727 0008279 271.2704  88.7527 14.24315821187485
CUBESAT XI-IV (CO-57)   
1 27848U 03031J   26138.29557300  .00000143  00000+0  81891-4 0  9995
2 27848  98.6776 146.9670 0008280 294.1039  65.9273 14.23603354187125
CUBESAT XI-V            
1 28895U 05043F   26138.36943047  .00000767  00000+0  12888-3 0  9999
2 28895  98.2951 293.3724 0012904 302.7751  57.2212 14.72544221 97365
CUTE-1.7+APD II (CO-65) 
1 32785U 08021C   26138.81268301  .00003337  00000+0  21427-3 0  9999
2 32785  97.8270 119.6307 0010484 122.7481 237.4759 15.09144637980766
CANX-2                  
1 32790U 08021H   26138.44559662  .00001678  00000+0  12145-3 0  9990
2 32790  97.8621 117.6549 0011514 137.7182 222.4934 15.05378381980330
SEEDS II (CO-66)        
1 32791U 08021J   26138.74718774  .00011276  00000+0  37138-3 0  9999
2 32791  97.7522 135.2661 0004787  73.1038 287.0727 15.31652433982788
SWISSCUBE               
1 35932U 09051B   26138.68013464  .00000608  00000+0  12996-3 0  9992
2 35932  98.4054  46.0532 0005815 314.4353  45.6371 14.62418009884849
BEESAT-1                
1 35933U 09051C   26138.46894892  .00000509  00000+0  11221-3 0  9991
2 35933  98.3984  45.5356 0004643 334.4729  25.6242 14.61666379884845
ITUPSAT1                
1 35935U 09051E   26138.70792872  .00000464  00000+0  10600-3 0  9995
2 35935  98.4069  45.0013 0007034 340.8774  19.2160 14.60391062884431
TISAT 1                 
1 36799U 10035E   26138.57691142  .00012041  00000+0  41117-3 0  9992
2 36799  98.0707  82.5316 0003021  42.8279 317.3195 15.30483291863170
AEROCUBE 4.5A           
1 38767U 12048K   26138.40536025  .00115844  00000+0  62899-3 0  9990
2 38767  64.6279 134.3990 0018475 216.1971 143.7934 15.79194241367930
STRAND-1                
1 39090U 13009E   26138.74506132  .00000155  00000+0  66607-4 0  9991
2 39090  98.3916 319.7055 0007857 326.1849  33.8836 14.37144142692839
BRITE-AUSTRIA           
1 39091U 13009F   26138.74528813  .00000095  00000+0  46946-4 0  9999
2 39091  98.3987 318.9111 0009572 334.6124  25.4591 14.36529217692821
NEE-01 PEGASO           
1 39151U 13018B   26138.31910358  .00001240  00000+0  12358-3 0  9990
2 39151  98.1184 281.4928 0011350 261.1687  98.8246 14.93496678706240
POPACS 2                
1 39269U 13055E   26138.44354988  .00008457  00000+0  14539-3 0  9996
2 39269  80.9909 178.2246 0418590 289.4810  66.1638 14.90512798658785
POPACS 3                
1 39270U 13055F   26138.08290712  .00012355  00000+0  29389-3 0  9993
2 39270  81.0018 261.8052 0554786 161.5379 200.6875 14.55366310634175
ZACUBE-1 (TSHEPISOSAT)  
1 39417U 13066B   26138.14345683  .00003149  00000+0  24772-3 0  9995
2 39417  97.8123 100.3176 0041199 353.8882   6.1833 15.00938209676226
WNISAT-1                
1 39423U 13066H   26138.35869375  .00000283  00000+0  60820-4 0  9995
2 39423  97.7165 289.6383 0162305 326.2807  32.8149 14.58021448662381
TRITON-1                
1 39427U 13066M   26138.85088288  .00002241  00000+0  27317-3 0  9999
2 39427  97.8273  49.3264 0089511 331.0257  28.6003 14.81570005669748
GOMX-1                  
1 39430U 13066Q   26138.83615252  .00001321  00000+0  20453-3 0  9990
2 39430  97.6499 341.1505 0128948 171.1121 189.2413 14.69332076665602
CUBEBUG-2 (LO-74)       
1 39440U 13066AA  26138.58665348  .00001926  00000+0  18242-3 0  9998
2 39440  97.8896  87.4497 0059197 124.5862 236.0962 14.93510802672575
NEE-02 KRYSAOR          
1 39441U 13066AB  26138.59227367  .00000939  00000+0  10841-3 0  9995
2 39441  97.8885  78.0238 0066537 165.4651 194.8499 14.86493907671808
FUNCUBE-1 (AO-73)       
1 39444U 13066AE  26138.48756625  .00003751  00000+0  23785-3 0  9996
2 39444  97.8264 109.3260 0034897 306.8242  52.9786 15.09070822675187
UWE-3                   
1 39446U 13066AG  26138.60277944  .00002656  00000+0  23180-3 0  9996
2 39446  97.8682  94.4880 0050462  59.2487 301.3689 14.96745846673159
BRITE-CA1 (TORONTO)     
1 40020U 14033L   26138.61753219  .00000387  00000+0  65962-4 0  9990
2 40020  97.9698 268.0983 0078858  12.6212 347.6946 14.72632494637863
DUCHIFAT-1              
1 40021U 14033M   26138.41729863  .00049241  00000+0  63298-3 0  9998
2 40021  98.0492 193.5387 0006136 172.4432 187.6916 15.58929454651109
NANOSATC-BR1            
1 40024U 14033Q   26138.07395344  .00011102  00000+0  38005-3 0  9999
2 40024  98.0738 167.8159 0001654 293.1752  66.9312 15.30427931649370
QB50P1                  
1 40025U 14033R   26138.48738091  .00005166  00000+0  25945-3 0  9997
2 40025  98.0973 147.5624 0007786 338.9095  21.1814 15.17758006648525
QB50P2                  
1 40032U 14033Y   26138.70778128  .00004027  00000+0  22122-3 0  9994
2 40032  98.0753 133.7642 0005644 277.6790  82.3799 15.14744084648202
PERSEUS-M2              
1 40037U 14033AD  26138.82340527  .00001565  00000+0  14692-3 0  9997
2 40037  97.9963  88.7716 0013256  42.8965 317.3286 14.95415261646393
